NORAD_CAT_ID,OBJECT_NAME,OBJECT_TYPE,EPOCH,MEAN_MOTION,ECCENTRICITY,INCLINATION,RA_OF_ASC_NODE,ARG_OF_PERICENTER,MEAN_ANOMALY,BSTAR,MEAN_MOTION_DOT,MEAN_MOTION_DDOT,TLE_LINE0,TLE_LINE1,TLE_LINE2,SEMIMAJOR_AXIS,PERIOD,APOGEE,PERIGEE,DECAYED
51716.0,STARLINK-3543,PAYLOAD,2023-11-06 21:48:30,15.08801847,0.0001501,53.2169,201.8907,35.4884,324.6207,-0.0010394,-0.00016775,0.0,0 STARLINK-3543,1 51716U 22016C   23310.90868197 -.00016775  00000-0 -10394-2 0  9995,2 51716  53.2169 201.8907 0001501  35.4884 324.6207 15.08801847 94531,6917.997,95.44,540.9,538.824,0.0
51716.0,STARLINK-3543,PAYLOAD,2023-11-07 02:34:39,15.08800637,0.0001513,53.2162,200.9964,96.7543,263.3621,-0.0010226,-0.00016508,0.0,0 STARLINK-3543,1 51716U 22016C   23311.10740370 -.00016508  00000-0 -10226-2 0  9998,2 51716  53.2162 200.9964 0001513  96.7543 263.3621 15.08800637 95628,6918.001,95.44,540.912,538.819,0.0
51716.0,STARLINK-3543,PAYLOAD,2023-11-07 20:03:55,15.08806652,0.0001585,53.2167,197.7271,93.8522,266.2652,-0.00031367,-5.272e-05,0.0,0 STARLINK-3543,1 51716U 22016C   23311.83605645 -.00005272  00000-0 -31367-3 0  9999,2 51716  53.2167 197.7271 0001585  93.8522 266.2652 15.08806652 95732,6917.982,95.44,540.944,538.751,0.0
51716.0,STARLINK-3543,PAYLOAD,2023-11-08 02:25:28,15.08818004,0.0001326,53.2156,196.538,92.0779,268.0365,0.00089655,0.00014001,0.0,0 STARLINK-3543,1 51716U 22016C   23312.10102224  .00014001  00000-0  89655-3 0  9996,2 51716  53.2156 196.5380 0001326  92.0779 268.0365 15.08818004 95775,6917.948,95.439,540.73,538.895,0.0
51716.0,STARLINK-3543,PAYLOAD,2023-11-08 19:54:42,15.08863184,0.0001387,53.2168,193.268,96.5991,263.5159,0.0012398,0.00019511,0.0,0 STARLINK-3543,1 51716U 22016C   23312.82965690  .00019511  00000-0  12398-2 0  9999,2 51716  53.2168 193.2680 0001387  96.5991 263.5159 15.08863184 95889,6917.81,95.436,540.634,538.715,0.0
51716.0,STARLINK-3543,PAYLOAD,2023-11-08 23:05:28,15.08880318,0.0001345,53.2162,192.6731,98.6928,261.4217,0.0017714,0.00028048,0.0,0 STARLINK-3543,1 51716U 22016C   23312.96213296  .00028048  00000-0  17714-2 0  9994,2 51716  53.2162 192.6731 0001345  98.6928 261.4217 15.08880318 94845,6917.757,95.435,540.553,538.692,0.0
51716.0,STARLINK-3543,PAYLOAD,2023-11-09 19:45:28,15.08861745,0.0001591,53.2164,188.8073,114.1337,245.9822,0.0012163,0.00019134,0.0,0 STARLINK-3543,1 51716U 22016C   23313.82324961  .00019134  00000-0  12163-2 0  9991,2 51716  53.2164 188.8073 0001591 114.1337 245.9822 15.08861745 96039,6917.814,95.436,540.78,538.578,0.0
51716.0,STARLINK-3543,PAYLOAD,2023-11-09 22:56:15,15.08843938,0.0001268,53.216,188.2128,80.5089,279.6046,0.001213,0.00019072,0.0,0 STARLINK-3543,1 51716U 22016C   23313.95573129  .00019072  00000-0  12130-2 0  9992,2 51716  53.2160 188.2128 0001268  80.5089 279.6046 15.08843938 94990,6917.868,95.437,540.611,538.856,0.0
51716.0,STARLINK-3543,PAYLOAD,2023-11-10 08:28:33,15.08847869,0.0001005,53.2158,186.4291,82.6698,277.4408,0.0010887,0.00017085,0.0,0 STARLINK-3543,1 51716U 22016C   23314.35317127  .00017085  00000-0  10887-2 0  9990,2 51716  53.2158 186.4291 0001005  82.6698 277.4408 15.08847869 96117,6917.856,95.437,540.417,539.026,0.0
51716.0,STARLINK-3543,PAYLOAD,2023-11-10 19:36:16,15.08842791,0.0001179,53.2153,184.3483,100.488,259.6245,0.0010098,0.00015821,0.0,0 STARLINK-3543,1 51716U 22016C   23314.81685300  .00015821  00000-0  10098-2 0  9992,2 51716  53.2153 184.3483 0001179 100.4880 259.6245 15.08842791 96183,6917.872,95.437,540.552,538.921,0.0
51716.0,STARLINK-3543,PAYLOAD,2023-11-10 21:11:39,15.08837602,0.0001549,53.216,184.0514,98.8866,261.2302,0.00093023,0.00014547,0.0,0 STARLINK-3543,1 51716U 22016C   23314.88309410  .00014547  00000-0  93023-3 0  9998,2 51716  53.2160 184.0514 0001549  98.8866 261.2302 15.08837602 95130,6917.888,95.438,540.824,538.681,0.0
51716.0,STARLINK-3543,PAYLOAD,2023-11-11 00:22:25,15.08840493,0.0001569,53.216,183.4568,97.6482,262.4688,0.00087153,0.0001361,0.0,0 STARLINK-3543,1 51716U 22016C   23315.01557411  .00013610  00000-0  87153-3 0  9997,2 51716  53.2160 183.4568 0001569  97.6482 262.4688 15.08840493 95159,6917.879,95.438,540.829,538.658,0.0
51716.0,STARLINK-3543,PAYLOAD,2023-11-11 19:27:03,15.08840832,0.0001728,53.2164,179.8861,90.3343,269.7848,0.00018452,2.65e-05,0.0,0 STARLINK-3543,1 51716U 22016C   23315.81045432  .00002650  00000-0  18452-3 0  9998,2 51716  53.2164 179.8861 0001728  90.3343 269.7848 15.08840832 96337,6917.878,95.438,540.938,538.547,0.0
51716.0,STARLINK-3543,PAYLOAD,2023-11-11 21:02:26,15.08839972,0.0001679,53.2163,179.5889,91.4785,268.6399,0.00013437,1.851e-05,0.0,0 STARLINK-3543,1 51716U 22016C   23315.87669434  .00001851  00000-0  13437-3 0  9998,2 51716  53.2163 179.5889 0001679  91.4785 268.6399 15.08839972 95285,6917.88,95.438,540.907,538.584,0.0
51716.0,STARLINK-3543,PAYLOAD,2023-11-12 08:10:08,15.08838611,0.0001591,53.2155,177.5076,91.4864,268.631,0.000305,4.569e-05,0.0,0 STARLINK-3543,1 51716U 22016C   23316.34037743  .00004569  00000-0  30500-3 0  9992,2 51716  53.2155 177.5076 0001591  91.4864 268.6310 15.08838611 95353,6917.885,95.438,540.85,538.649,0.0
51716.0,STARLINK-3543,PAYLOAD,2023-11-12 22:28:36,15.08847555,0.0001474,53.2147,174.8305,92.369,267.747,0.00020428,2.965e-05,0.0,0 STARLINK-3543,1 51716U 22016C   23316.93653131  .00002965  00000-0  20428-3 0  9998,2 51716  53.2147 174.8305 0001474  92.3690 267.7470 15.08847555 95440,6917.857,95.437,540.742,538.703,0.0
51716.0,STARLINK-3543,PAYLOAD,2023-11-13 00:03:59,15.08849594,0.0001479,53.2151,174.5328,92.5531,267.5631,0.00018461,2.652e-05,0.0,0 STARLINK-3543,1 51716U 22016C   23317.00277017  .00002652  00000-0  18461-3 0  9999,2 51716  53.2151 174.5328 0001479  92.5531 267.5631 15.08849594 96519,6917.851,95.437,540.739,538.693,0.0
51716.0,STARLINK-3543,PAYLOAD,2023-11-13 08:00:55,15.0884464,0.0001415,53.2147,173.0445,95.6027,264.5126,0.00010681,1.413e-05,0.0,0 STARLINK-3543,1 51716U 22016C   23317.33397203  .00001413  00000-0  10681-3 0  9995,2 51716  53.2147 173.0445 0001415  95.6027 264.5126 15.08844640 96560,6917.866,95.437,540.71,538.752,0.0
51716.0,STARLINK-3543,PAYLOAD,2023-11-13 20:44:00,15.08845915,0.0001527,53.2151,170.6662,90.4723,269.6444,0.00014703,2.053e-05,0.0,0 STARLINK-3543,1 51716U 22016C   23317.86389157  .00002053  00000-0  14703-3 0  9992,2 51716  53.2151 170.6662 0001527  90.4723 269.6444 15.08845915 95585,6917.862,95.437,540.784,538.671,0.0
51716.0,STARLINK-3543,PAYLOAD,2023-11-14 07:51:42,15.0884325,0.0001487,53.2153,168.5848,89.7884,270.3279,0.00010499,1.383e-05,0.0,0 STARLINK-3543,1 51716U 22016C   23318.32757218  .00001383  00000-0  10499-3 0  9994,2 51716  53.2153 168.5848 0001487  89.7884 270.3279 15.08843250 95656,6917.87,95.437,540.764,538.707,0.0
51716.0,STARLINK-3543,PAYLOAD,2023-11-14 20:34:47,15.08848709,0.0001983,53.2175,166.2066,91.2894,268.8326,0.00014239,1.979e-05,0.0,0 STARLINK-3543,1 51716U 22016C   23318.85749019  .00001979  00000-0  14239-3 0  9999,2 51716  53.2175 166.2066 0001983  91.2894 268.8326 15.08848709 96792,6917.854,95.437,541.091,538.347,0.0
51716.0,STARLINK-3543,PAYLOAD,2023-11-14 23:45:33,15.08841916,0.0001399,53.217,165.612,85.3165,274.7986,1.7072e-05,-1.6e-07,0.0,0 STARLINK-3543,1 51716U 22016C   23318.98997324 -.00000016  00000-0  17072-4 0  9998,2 51716  53.2170 165.6120 0001399  85.3165 274.7986 15.08841916 96811,6917.875,95.437,540.707,538.772,0.0
51716.0,STARLINK-3543,PAYLOAD,2023-11-15 20:25:33,15.0886154,0.0003047,53.2196,161.7456,89.6457,270.4885,-0.0001725,-3.035e-05,0.0,0 STARLINK-3543,1 51716U 22016C   23319.85108492 -.00003035  00000-0 -17250-3 0  9997,2 51716  53.2196 161.7456 0003047  89.6457 270.4885 15.08861540 96941,6917.815,95.436,541.787,537.572,0.0
51716.0,STARLINK-3543,PAYLOAD,2023-11-16 13:54:48,15.0884748,0.0003061,53.2193,158.4748,92.9198,267.2145,-0.00057643,-9.454e-05,0.0,0 STARLINK-3543,1 51716U 22016C   23320.57973360 -.00009454  00000-0 -57643-3 0  9993,2 51716  53.2193 158.4748 0003061  92.9198 267.2145 15.08847480 95994,6917.858,95.437,541.84,537.605,0.0
51716.0,STARLINK-3543,PAYLOAD,2023-11-16 20:16:19,15.08903387,0.0003855,53.2191,157.2854,96.4057,263.7374,0.00038201,5.807e-05,0.0,0 STARLINK-3543,1 51716U 22016C   23320.84466484  .00005807  00000-0  38201-3 0  9992,2 51716  53.2191 157.2854 0003855  96.4057 263.7374 15.08903387 96031,6917.687,95.434,542.218,536.885,0.0
51716.0,STARLINK-3543,PAYLOAD,2023-11-16 23:27:10,15.08786408,0.0003001,53.2168,156.6902,96.0566,264.0768,-0.00053466,-8.776e-05,0.0,0 STARLINK-3543,1 51716U 22016C   23320.97720426 -.00008776  00000-0 -53466-3 0  9995,2 51716  53.2168 156.6902 0003001  96.0566 264.0768 15.08786408 97121,6918.044,95.441,541.985,537.833,0.0
51716.0,STARLINK-3543,PAYLOAD,2023-11-17 05:48:43,15.08774786,0.0003582,53.2157,155.5003,88.0868,272.0535,-0.00071376,-0.00011612,0.0,0 STARLINK-3543,1 51716U 22016C   23321.24217333 -.00011612  00000-0 -71376-3 0  9997,2 51716  53.2157 155.5003 0003582  88.0868 272.0535 15.08774786 96091,6918.08,95.442,542.423,537.467,0.0
51716.0,STARLINK-3543,PAYLOAD,2023-11-17 20:07:09,15.08831421,0.0001402,53.2156,152.8256,89.7856,270.3297,1.3418e-05,-7.4e-07,0.0,0 STARLINK-3543,1 51716U 22016C   23321.83830182 -.00000074  00000-0  13418-4 0  9998,2 51716  53.2156 152.8256 0001402  89.7856 270.3297 15.08831421 97248,6917.907,95.438,540.742,538.802,0.0
51716.0,STARLINK-3543,PAYLOAD,2023-11-17 21:42:32,15.08830484,0.0001346,53.2163,152.5282,90.5225,269.5921,5.9735e-05,6.63e-06,0.0,0 STARLINK-3543,1 51716U 22016C   23321.90454570  .00000663  00000-0  59735-4 0  9994,2 51716  53.2163 152.5282 0001346  90.5225 269.5921 15.08830484 96194,6917.909,95.438,540.706,538.843,0.0
51716.0,STARLINK-3543,PAYLOAD,2023-11-18 05:39:28,15.08833557,0.0001356,53.2165,151.0415,90.4808,269.634,7.6916e-05,9.36e-06,0.0,0 STARLINK-3543,1 51716U 22016C   23322.23574556  .00000936  00000-0  76916-4 0  9991,2 51716  53.2165 151.0415 0001356  90.4808 269.6340 15.08833557 96241,6917.9,95.438,540.703,538.827,0.0
